SL-14 R/B               
1 16792U 86046B   26089.01372581  .00000641  00000+0  70895-4 0  9994
2 16792  82.4805  60.9733 0023644 157.2653 202.9616 14.85610537129424
SL-14 R/B               
1 16882U 86055B   26089.28713460  .00000578  00000+0  63787-4 0  9999
2 16882  82.5169 107.3088 0017314 263.5284 206.8082 14.85661161122427
AJISAI (EGS)            
1 16908U 86061A   26089.29665442 -.00000105  00000+0 -56513-4 0  9999
2 16908  50.0115  29.9803 0011338 340.0724 190.5098 12.44515623470562
SL-14 R/B               
1 17567U 87024B   26089.24170616  .00000640  00000+0  70028-4 0  9999
2 17567  82.5255  73.4412 0017940 187.7793 172.3148 14.86152194 91185
COSMOS 1833             
1 17589U 87027A   26089.24774547 -.00000281  00000+0 -12454-3 0  9990
2 17589  70.9170 282.8080 0023201 184.1845 175.9086 14.13046818 13223
SL-16 R/B               
1 17590U 87027B   26089.23235985  .00000087  00000+0  66985-4 0  9990
2 17590  71.0016 233.2024 0002867  92.0028 268.1424 14.17165974 18257
SL-14 R/B               
1 17912U 87038B   26089.24722696  .00000626  00000+0  69627-4 0  9996
2 17912  82.4978 277.4359 0020757  96.3022 264.0559 14.85388313 82285
COSMOS 1844             
1 17973U 87041A   26089.11960557  .00000407  00000+0  23614-3 0  9995
2 17973  70.9016 351.0854 0031130 347.9991  12.0385 14.14557729  6479
SL-14 R/B               
1 18153U 87055B   26089.08575270  .00000540  00000+0  59422-4 0  9996
2 18153  82.5005 329.8113 0019444 309.0662  50.8824 14.85649806 72967
COSMOS 1867             
1 18187U 87060A   26089.19012854 -.00000022  00000+0  29549-4 0  9998
2 18187  65.0096 249.2907 0014846 279.8758  80.0651 14.31506260 22872
SL-14 R/B               
1 18749U 88001B   26089.21724370  .00000600  00000+0  66486-4 0  9996
2 18749  82.5159 176.0596 0018454 165.9843 194.1890 14.85550575 45076
COSMOS 1933             
1 18958U 88020A   26088.89411455  .00006072  00000+0  29566-3 0  9995
2 18958  82.5120 230.9169 0005254 121.1687 239.0063 15.18174718 53298
