CCSDS_OMM_VERS = 2.0
CREATION_DATE  = 
ORIGINATOR     = 

OBJECT_NAME    = SL-14 R/B
OBJECT_ID      = 1986-046B
CENTER_NAME    = EARTH
REF_FRAME      = TEME
TIME_SYSTEM    = UTC
MEAN_ELEMENT_THEORY = SGP/SGP4

EPOCH          = 2026-03-30T00:19:45.909984
MEAN_MOTION    = 14.85610537
ECCENTRICITY   = .00236446
INCLINATION    = 82.4805
RA_OF_ASC_NODE = 60.9733
ARG_OF_PERICENTER = 157.2653
MEAN_ANOMALY   = 202.9616

EPHEMERIS_TYPE = 0
CLASSIFICATION_TYPE = U
NORAD_CAT_ID   = 16792
ELEMENT_SET_NO = 999
REV_AT_EPOCH   = 12942
BSTAR          = .70895442E-4
MEAN_MOTION_DOT = .641E-5
MEAN_MOTION_DDOT = 0

CCSDS_OMM_VERS = 2.0
CREATION_DATE  = 
ORIGINATOR     = 

OBJECT_NAME    = SL-14 R/B
OBJECT_ID      = 1986-055B
CENTER_NAME    = EARTH
REF_FRAME      = TEME
TIME_SYSTEM    = UTC
MEAN_ELEMENT_THEORY = SGP/SGP4

EPOCH          = 2026-03-30T06:53:28.429440
MEAN_MOTION    = 14.85661161
ECCENTRICITY   = .00173149
INCLINATION    = 82.5169
RA_OF_ASC_NODE = 107.3088
ARG_OF_PERICENTER = 263.5284
MEAN_ANOMALY   = 206.8082

EPHEMERIS_TYPE = 0
CLASSIFICATION_TYPE = U
NORAD_CAT_ID   = 16882
ELEMENT_SET_NO = 999
REV_AT_EPOCH   = 12242
BSTAR          = .63786778E-4
MEAN_MOTION_DOT = .578E-5
MEAN_MOTION_DDOT = 0

CCSDS_OMM_VERS = 2.0
CREATION_DATE  = 
ORIGINATOR     = 

OBJECT_NAME    = AJISAI (EGS)
OBJECT_ID      = 1986-061A
CENTER_NAME    = EARTH
REF_FRAME      = TEME
TIME_SYSTEM    = UTC
MEAN_ELEMENT_THEORY = SGP/SGP4

EPOCH          = 2026-03-30T07:07:10.941888
MEAN_MOTION    = 12.44515623
ECCENTRICITY   = .00113383
INCLINATION    = 50.0115
RA_OF_ASC_NODE = 29.9803
ARG_OF_PERICENTER = 340.0724
MEAN_ANOMALY   = 190.5098

EPHEMERIS_TYPE = 0
CLASSIFICATION_TYPE = U
NORAD_CAT_ID   = 16908
ELEMENT_SET_NO = 999
REV_AT_EPOCH   = 47056
BSTAR          = -.56512511E-4
MEAN_MOTION_DOT = -.105E-5
MEAN_MOTION_DDOT = 0

CCSDS_OMM_VERS = 2.0
CREATION_DATE  = 
ORIGINATOR     = 

OBJECT_NAME    = SL-14 R/B
OBJECT_ID      = 1987-024B
CENTER_NAME    = EARTH
REF_FRAME      = TEME
TIME_SYSTEM    = UTC
MEAN_ELEMENT_THEORY = SGP/SGP4

EPOCH          = 2026-03-30T05:48:03.412224
MEAN_MOTION    = 14.86152194
ECCENTRICITY   = .00179408
INCLINATION    = 82.5255
RA_OF_ASC_NODE = 73.4412
ARG_OF_PERICENTER = 187.7793
MEAN_ANOMALY   = 172.3148

EPHEMERIS_TYPE = 0
CLASSIFICATION_TYPE = U
NORAD_CAT_ID   = 17567
ELEMENT_SET_NO = 999
REV_AT_EPOCH   = 9118
BSTAR          = .70027716E-4
MEAN_MOTION_DOT = .64E-5
MEAN_MOTION_DDOT = 0

CCSDS_OMM_VERS = 2.0
CREATION_DATE  = 
ORIGINATOR     = 

OBJECT_NAME    = COSMOS 1833
OBJECT_ID      = 1987-027A
CENTER_NAME    = EARTH
REF_FRAME      = TEME
TIME_SYSTEM    = UTC
MEAN_ELEMENT_THEORY = SGP/SGP4

EPOCH          = 2026-03-30T05:56:45.208608
MEAN_MOTION    = 14.13046818
ECCENTRICITY   = .00232019
INCLINATION    = 70.9170
RA_OF_ASC_NODE = 282.8080
ARG_OF_PERICENTER = 184.1845
MEAN_ANOMALY   = 175.9086

EPHEMERIS_TYPE = 0
CLASSIFICATION_TYPE = U
NORAD_CAT_ID   = 17589
ELEMENT_SET_NO = 999
REV_AT_EPOCH   = 1322
BSTAR          = -.12453727E-3
MEAN_MOTION_DOT = -.281E-5
MEAN_MOTION_DDOT = 0

CCSDS_OMM_VERS = 2.0
CREATION_DATE  = 
ORIGINATOR     = 

OBJECT_NAME    = SL-16 R/B
OBJECT_ID      = 1987-027B
CENTER_NAME    = EARTH
REF_FRAME      = TEME
TIME_SYSTEM    = UTC
MEAN_ELEMENT_THEORY = SGP/SGP4

EPOCH          = 2026-03-30T05:34:35.891040
MEAN_MOTION    = 14.17165974
ECCENTRICITY   = .00028675
INCLINATION    = 71.0016
RA_OF_ASC_NODE = 233.2024
ARG_OF_PERICENTER = 92.0028
MEAN_ANOMALY   = 268.1424

EPHEMERIS_TYPE = 0
CLASSIFICATION_TYPE = U
NORAD_CAT_ID   = 17590
ELEMENT_SET_NO = 999
REV_AT_EPOCH   = 1825
BSTAR          = .66985247E-4
MEAN_MOTION_DOT = .87E-6
MEAN_MOTION_DDOT = 0

CCSDS_OMM_VERS = 2.0
CREATION_DATE  = 
ORIGINATOR     = 

OBJECT_NAME    = SL-14 R/B
OBJECT_ID      = 1987-038B
CENTER_NAME    = EARTH
REF_FRAME      = TEME
TIME_SYSTEM    = UTC
MEAN_ELEMENT_THEORY = SGP/SGP4

EPOCH          = 2026-03-30T05:56:00.409344
MEAN_MOTION    = 14.85388313
ECCENTRICITY   = .00207578
INCLINATION    = 82.4978
RA_OF_ASC_NODE = 277.4359
ARG_OF_PERICENTER = 96.3022
MEAN_ANOMALY   = 264.0559

EPHEMERIS_TYPE = 0
CLASSIFICATION_TYPE = U
NORAD_CAT_ID   = 17912
ELEMENT_SET_NO = 999
REV_AT_EPOCH   = 8228
BSTAR          = .69626653E-4
MEAN_MOTION_DOT = .626E-5
MEAN_MOTION_DDOT = 0

CCSDS_OMM_VERS = 2.0
CREATION_DATE  = 
ORIGINATOR     = 

OBJECT_NAME    = COSMOS 1844
OBJECT_ID      = 1987-041A
CENTER_NAME    = EARTH
REF_FRAME      = TEME
TIME_SYSTEM    = UTC
MEAN_ELEMENT_THEORY = SGP/SGP4

EPOCH          = 2026-03-30T02:52:13.921248
MEAN_MOTION    = 14.14557729
ECCENTRICITY   = .00311303
INCLINATION    = 70.9016
RA_OF_ASC_NODE = 351.0854
ARG_OF_PERICENTER = 347.9991
MEAN_ANOMALY   = 12.0385

EPHEMERIS_TYPE = 0
CLASSIFICATION_TYPE = U
NORAD_CAT_ID   = 17973
ELEMENT_SET_NO = 999
REV_AT_EPOCH   = 647
BSTAR          = .2361413E-3
MEAN_MOTION_DOT = .407E-5
MEAN_MOTION_DDOT = 0

CCSDS_OMM_VERS = 2.0
CREATION_DATE  = 
ORIGINATOR     = 

OBJECT_NAME    = SL-14 R/B
OBJECT_ID      = 1987-055B
CENTER_NAME    = EARTH
REF_FRAME      = TEME
TIME_SYSTEM    = UTC
MEAN_ELEMENT_THEORY = SGP/SGP4

EPOCH          = 2026-03-30T02:03:29.033280
MEAN_MOTION    = 14.85649806
ECCENTRICITY   = .00194441
INCLINATION    = 82.5005
RA_OF_ASC_NODE = 329.8113
ARG_OF_PERICENTER = 309.0662
MEAN_ANOMALY   = 50.8824

EPHEMERIS_TYPE = 0
CLASSIFICATION_TYPE = U
NORAD_CAT_ID   = 18153
ELEMENT_SET_NO = 999
REV_AT_EPOCH   = 7296
BSTAR          = .59422482E-4
MEAN_MOTION_DOT = .54E-5
MEAN_MOTION_DDOT = 0

CCSDS_OMM_VERS = 2.0
CREATION_DATE  = 
ORIGINATOR     = 

OBJECT_NAME    = COSMOS 1867
OBJECT_ID      = 1987-060A
CENTER_NAME    = EARTH
REF_FRAME      = TEME
TIME_SYSTEM    = UTC
MEAN_ELEMENT_THEORY = SGP/SGP4

EPOCH          = 2026-03-30T04:33:47.105856
MEAN_MOTION    = 14.31506260
ECCENTRICITY   = .00148463
INCLINATION    = 65.0096
RA_OF_ASC_NODE = 249.2907
ARG_OF_PERICENTER = 279.8758
MEAN_ANOMALY   = 80.0651

EPHEMERIS_TYPE = 0
CLASSIFICATION_TYPE = U
NORAD_CAT_ID   = 18187
ELEMENT_SET_NO = 999
REV_AT_EPOCH   = 2287
BSTAR          = .29549332E-4
MEAN_MOTION_DOT = -.22E-6
MEAN_MOTION_DDOT = 0

CCSDS_OMM_VERS = 2.0
CREATION_DATE  = 
ORIGINATOR     = 

OBJECT_NAME    = SL-14 R/B
OBJECT_ID      = 1988-001B
CENTER_NAME    = EARTH
REF_FRAME      = TEME
TIME_SYSTEM    = UTC
MEAN_ELEMENT_THEORY = SGP/SGP4

EPOCH          = 2026-03-30T05:12:49.855680
MEAN_MOTION    = 14.85550575
ECCENTRICITY   = .0018454
INCLINATION    = 82.5159
RA_OF_ASC_NODE = 176.0596
ARG_OF_PERICENTER = 165.9843
MEAN_ANOMALY   = 194.1890

EPHEMERIS_TYPE = 0
CLASSIFICATION_TYPE = U
NORAD_CAT_ID   = 18749
ELEMENT_SET_NO = 999
REV_AT_EPOCH   = 4507
BSTAR          = .66485829E-4
MEAN_MOTION_DOT = .6E-5
MEAN_MOTION_DDOT = 0

CCSDS_OMM_VERS = 2.0
CREATION_DATE  = 
ORIGINATOR     = 

OBJECT_NAME    = COSMOS 1933
OBJECT_ID      = 1988-020A
CENTER_NAME    = EARTH
REF_FRAME      = TEME
TIME_SYSTEM    = UTC
MEAN_ELEMENT_THEORY = SGP/SGP4

EPOCH          = 2026-03-29T21:27:31.497120
MEAN_MOTION    = 15.18174718
ECCENTRICITY   = .00052542
INCLINATION    = 82.5120
RA_OF_ASC_NODE = 230.9169
ARG_OF_PERICENTER = 121.1687
MEAN_ANOMALY   = 239.0063

EPHEMERIS_TYPE = 0
CLASSIFICATION_TYPE = U
NORAD_CAT_ID   = 18958
ELEMENT_SET_NO = 999
REV_AT_EPOCH   = 5329
BSTAR          = .2956645E-3
MEAN_MOTION_DOT = .6072E-4
MEAN_MOTION_DDOT = 0

